{"type": "FeatureCollection", "features": [{"type": "Feature", "properties": {"norad_id": 2807, "name": "OPS 7218 (TRANSIT 16)", "group": "nnss", "lat": 73.72448490684639, "lon": 172.45866611410833, "alt_km": 1047.9929116992125, "timestamp": "2025-12-25T22:42:17.279835+00:00", "meta": {"OBJECT_NAME": "OPS 7218 (TRANSIT 16)", "OBJECT_ID": "1967-048A", "EPOCH": "2025-12-25T13:52:36.167232", "MEAN_MOTION": 13.50724852, "ECCENTRICITY": 0.0022141, "INCLINATION": 89.6734, "RA_OF_ASC_NODE": 353.5902, "ARG_OF_PERICENTER": 79.9207, "MEAN_ANOMALY": 38.6228, "EPHEMERIS_TYPE": 0, "CLASSIFICATION_TYPE": "U", "NORAD_CAT_ID": 2807, "ELEMENT_SET_NO": 999, "REV_AT_EPOCH": 88449, "BSTAR": 0.00014159, "MEAN_MOTION_DOT": 1.02e-06, "MEAN_MOTION_DDOT": 0}, "tle": {"line1": "1 02807U 67048A   25359.57819638  .00000102  00000+0  14159-3 0  9998", "line2": "2 02807  89.6734 353.5902 0022141  79.9207  38.6228 13.50724852884496"}}, "geometry": {"type": "Point", "coordinates": [172.45866611410833, 73.72448490684639]}}, {"type": "Feature", "properties": {"norad_id": 2965, "name": "OPS 4947 (TRANSIT 17)", "group": "nnss", "lat": -59.20530891506894, "lon": 22.1659133232972, "alt_km": 1075.9772461250923, "timestamp": "2025-12-25T22:42:17.279856+00:00", "meta": {"OBJECT_NAME": "OPS 4947 (TRANSIT 17)", "OBJECT_ID": "1967-092A", "EPOCH": "2025-12-25T14:41:33.017280", "MEAN_MOTION": 13.53456966, "ECCENTRICITY": 0.0047171, "INCLINATION": 89.2485, "RA_OF_ASC_NODE": 23.4532, "ARG_OF_PERICENTER": 196.3512, "MEAN_ANOMALY": 278.3032, "EPHEMERIS_TYPE": 0, "CLASSIFICATION_TYPE": "U", "NORAD_CAT_ID": 2965, "ELEMENT_SET_NO": 999, "REV_AT_EPOCH": 87271, "BSTAR": 0.00018696, "MEAN_MOTION_DOT": 1.38e-06, "MEAN_MOTION_DDOT": 0}, "tle": {"line1": "1 02965U 67092A   25359.61218770  .00000138  00000+0  18696-3 0  9996", "line2": "2 02965  89.2485  23.4532 0047171 196.3512 278.3032 13.53456966872714"}}, "geometry": {"type": "Point", "coordinates": [22.1659133232972, -59.20530891506894]}}, {"type": "Feature", "properties": {"norad_id": 3133, "name": "OPS 7034 (TRANSIT 18)", "group": "nnss", "lat": -0.9139319668930126, "lon": -86.3229439440151, "alt_km": 1106.7250750834055, "timestamp": "2025-12-25T22:42:17.279870+00:00", "meta": {"OBJECT_NAME": "OPS 7034 (TRANSIT 18)", "OBJECT_ID": "1968-012A", "EPOCH": "2025-12-25T17:39:56.874816", "MEAN_MOTION": 13.51568747, "ECCENTRICITY": 0.0075022, "INCLINATION": 90.0284, "RA_OF_ASC_NODE": 273.676, "ARG_OF_PERICENTER": 131.825, "MEAN_ANOMALY": 287.0423, "EPHEMERIS_TYPE": 0, "CLASSIFICATION_TYPE": "U", "NORAD_CAT_ID": 3133, "ELEMENT_SET_NO": 999, "REV_AT_EPOCH": 57094, "BSTAR": 0.0002121, "MEAN_MOTION_DOT": 1.51e-06, "MEAN_MOTION_DDOT": 0}, "tle": {"line1": "1 03133U 68012A   25359.73607494  .00000151  00000+0  21210-3 0  9996", "line2": "2 03133  90.0284 273.6760 0075022 131.8250 287.0423 13.51568747570940"}}, "geometry": {"type": "Point", "coordinates": [-86.3229439440151, -0.9139319668930126]}}, {"type": "Feature", "properties": {"norad_id": 4507, "name": "NNSS 19 (TRANSIT 19)", "group": "nnss", "lat": -38.93231084731569, "lon": -125.45339919223167, "alt_km": 1021.4343344674544, "timestamp": "2025-12-25T22:42:17.279881+00:00", "meta": {"OBJECT_NAME": "NNSS 19 (TRANSIT 19)", "OBJECT_ID": "1970-067A", "EPOCH": "2025-12-25T17:33:54.763776", "MEAN_MOTION": 13.51317732, "ECCENTRICITY": 0.0170218, "INCLINATION": 90.0047, "RA_OF_ASC_NODE": 234.5427, "ARG_OF_PERICENTER": 255.346, "MEAN_ANOMALY": 102.8768, "EPHEMERIS_TYPE": 0, "CLASSIFICATION_TYPE": "U", "NORAD_CAT_ID": 4507, "ELEMENT_SET_NO": 999, "REV_AT_EPOCH": 72397, "BSTAR": 0.00012964, "MEAN_MOTION_DOT": 1e-06, "MEAN_MOTION_DDOT": 0}, "tle": {"line1": "1 04507U 70067A   25359.73188384  .00000100  00000+0  12964-3 0  9997", "line2": "2 04507  90.0047 234.5427 0170218 255.3460 102.8768 13.51317732723972"}}, "geometry": {"type": "Point", "coordinates": [-125.45339919223167, -38.93231084731569]}}, {"type": "Feature", "properties": {"norad_id": 6909, "name": "NNSS 20 (TRANSIT 20)", "group": "nnss", "lat": -86.01179176505185, "lon": 76.92493726223663, "alt_km": 1079.6493164076646, "timestamp": "2025-12-25T22:42:17.279892+00:00", "meta": {"OBJECT_NAME": "NNSS 20 (TRANSIT 20)", "OBJECT_ID": "1973-081A", "EPOCH": "2025-12-25T17:54:30.671712", "MEAN_MOTION": 13.71441138, "ECCENTRICITY": 0.0156091, "INCLINATION": 89.8559, "RA_OF_ASC_NODE": 254.8594, "ARG_OF_PERICENTER": 39.7617, "MEAN_ANOMALY": 321.4863, "EPHEMERIS_TYPE": 0, "CLASSIFICATION_TYPE": "U", "NORAD_CAT_ID": 6909, "ELEMENT_SET_NO": 999, "REV_AT_EPOCH": 80539, "BSTAR": 0.00027867, "MEAN_MOTION_DOT": 2.84e-06, "MEAN_MOTION_DDOT": 0}, "tle": {"line1": "1 06909U 73081A   25359.74618833  .00000284  00000+0  27867-3 0  9993", "line2": "2 06909  89.8559 254.8594 0156091  39.7617 321.4863 13.71441138805397"}}, "geometry": {"type": "Point", "coordinates": [76.92493726223663, -86.01179176505185]}}, {"type": "Feature", "properties": {"norad_id": 10457, "name": "TRANSAT", "group": "nnss", "lat": -32.15682890452373, "lon": -101.64912519274151, "alt_km": 1072.282018563361, "timestamp": "2025-12-25T22:42:17.279903+00:00", "meta": {"OBJECT_NAME": "TRANSAT", "OBJECT_ID": "1977-106A", "EPOCH": "2025-12-25T18:39:52.188768", "MEAN_MOTION": 13.48945596, "ECCENTRICITY": 0.0026569, "INCLINATION": 89.6475, "RA_OF_ASC_NODE": 78.1351, "ARG_OF_PERICENTER": 152.5856, "MEAN_ANOMALY": 322.1693, "EPHEMERIS_TYPE": 0, "CLASSIFICATION_TYPE": "U", "NORAD_CAT_ID": 10457, "ELEMENT_SET_NO": 999, "REV_AT_EPOCH": 36919, "BSTAR": 0.00011911, "MEAN_MOTION_DOT": 8.5e-07, "MEAN_MOTION_DDOT": 0}, "tle": {"line1": "1 10457U 77106A   25359.77768737  .00000085  00000+0  11911-3 0  9992", "line2": "2 10457  89.6475  78.1351 0026569 152.5856 322.1693 13.48945596369191"}}, "geometry": {"type": "Point", "coordinates": [-101.64912519274151, -32.15682890452373]}}, {"type": "Feature", "properties": {"norad_id": 12458, "name": "NOVA 1", "group": "nnss", "lat": -25.501352496851666, "lon": 91.12810222351078, "alt_km": 1179.2134695691202, "timestamp": "2025-12-25T22:42:17.279914+00:00", "meta": {"OBJECT_NAME": "NOVA 1", "OBJECT_ID": "1981-044A", "EPOCH": "2025-12-25T17:58:17.685120", "MEAN_MOTION": 13.23279874, "ECCENTRICITY": 0.0015708, "INCLINATION": 89.8525, "RA_OF_ASC_NODE": 91.2013, "ARG_OF_PERICENTER": 72.0128, "MEAN_ANOMALY": 43.809, "EPHEMERIS_TYPE": 0, "CLASSIFICATION_TYPE": "U", "NORAD_CAT_ID": 12458, "ELEMENT_SET_NO": 999, "REV_AT_EPOCH": 15358, "BSTAR": 0.00013895, "MEAN_MOTION_DOT": 6.8e-07, "MEAN_MOTION_DDOT": 0}, "tle": {"line1": "1 12458U 81044A   25359.74881580  .00000068  00000+0  13895-3 0  9994", "line2": "2 12458  89.8525  91.2013 0015708  72.0128  43.8090 13.23279874153588"}}, "geometry": {"type": "Point", "coordinates": [91.12810222351078, -25.501352496851666]}}, {"type": "Feature", "properties": {"norad_id": 15362, "name": "NOVA 3", "group": "nnss", "lat": -16.13892722796041, "lon": -99.34527356846456, "alt_km": 1180.8762236785024, "timestamp": "2025-12-25T22:42:17.279924+00:00", "meta": {"OBJECT_NAME": "NOVA 3", "OBJECT_ID": "1984-110A", "EPOCH": "2025-12-25T18:40:43.211424", "MEAN_MOTION": 13.23046286, "ECCENTRICITY": 0.0029854, "INCLINATION": 90.1217, "RA_OF_ASC_NODE": 80.688, "ARG_OF_PERICENTER": 294.3065, "MEAN_ANOMALY": 183.5086, "EPHEMERIS_TYPE": 0, "CLASSIFICATION_TYPE": "U", "NORAD_CAT_ID": 15362, "ELEMENT_SET_NO": 999, "REV_AT_EPOCH": 98871, "BSTAR": 0.00014425, "MEAN_MOTION_DOT": 6.9e-07, "MEAN_MOTION_DDOT": 0}, "tle": {"line1": "1 15362U 84110A   25359.77827791  .00000069  00000+0  14425-3 0  9996", "line2": "2 15362  90.1217  80.6880 0029854 294.3065 183.5086 13.23046286988715"}}, "geometry": {"type": "Point", "coordinates": [-99.34527356846456, -16.13892722796041]}}, {"type": "Feature", "properties": {"norad_id": 15935, "name": "OSCAR 30", "group": "nnss", "lat": 2.4545455643499077, "lon": -79.92993218592419, "alt_km": 1207.4638891368486, "timestamp": "2025-12-25T22:42:17.279935+00:00", "meta": {"OBJECT_NAME": "OSCAR 30", "OBJECT_ID": "1985-066A", "EPOCH": "2025-12-25T17:16:15.803904", "MEAN_MOTION": 13.3608056, "ECCENTRICITY": 0.0168809, "INCLINATION": 90.1652, "RA_OF_ASC_NODE": 100.0593, "ARG_OF_PERICENTER": 47.6141, "MEAN_ANOMALY": 119.9855, "EPHEMERIS_TYPE": 0, "CLASSIFICATION_TYPE": "U", "NORAD_CAT_ID": 15935, "ELEMENT_SET_NO": 999, "REV_AT_EPOCH": 96626, "BSTAR": 0.00020543, "MEAN_MOTION_DOT": 1.24e-06, "MEAN_MOTION_DDOT": 0}, "tle": {"line1": "1 15935U 85066A   25359.71962736  .00000124  00000+0  20543-3 0  9996", "line2": "2 15935  90.1652 100.0593 0168809  47.6141 119.9855 13.36080560966260"}}, "geometry": {"type": "Point", "coordinates": [-79.92993218592419, 2.4545455643499077]}}, {"type": "Feature", "properties": {"norad_id": 15936, "name": "OSCAR 24", "group": "nnss", "lat": -64.20236359520482, "lon": -87.831721317628, "alt_km": 1257.0168712553605, "timestamp": "2025-12-25T22:42:17.279946+00:00", "meta": {"OBJECT_NAME": "OSCAR 24", "OBJECT_ID": "1985-066B", "EPOCH": "2025-12-25T18:26:58.709184", "MEAN_MOTION": 13.35937682, "ECCENTRICITY": 0.0169998, "INCLINATION": 90.1791, "RA_OF_ASC_NODE": 92.5359, "ARG_OF_PERICENTER": 53.9382, "MEAN_ANOMALY": 58.384, "EPHEMERIS_TYPE": 0, "CLASSIFICATION_TYPE": "U", "NORAD_CAT_ID": 15936, "ELEMENT_SET_NO": 999, "REV_AT_EPOCH": 96817, "BSTAR": 0.00016315, "MEAN_MOTION_DOT": 1e-06, "MEAN_MOTION_DDOT": 0}, "tle": {"line1": "1 15936U 85066B   25359.76873506  .00000100  00000+0  16315-3 0  9994", "line2": "2 15936  90.1791  92.5359 0169998  53.9382  58.3840 13.35937682968174"}}, "geometry": {"type": "Point", "coordinates": [-87.831721317628, -64.20236359520482]}}]}